#aV2020  8 24  0  0  0.00000000     288 DD+AD WGS84 FIT  NGA
## 2120  86400.00000000   300.00000000 59085 0.0000000000000
+   31     1  2  3  4  5  6  7  8  9 10 11 12 13 15 16 17 18
+         19 20 21 22 23 24 25 26 27 28 29 30 31 32  0  0  0
+          0  0  0  0  0  0  0  0  0  0  0  0  0  0  0  0  0
+          0  0  0  0  0  0  0  0  0  0  0  0  0  0  0  0  0
+          0  0  0  0  0  0  0  0  0  0  0  0  0  0  0  0  0
++         2  2  2  2  2  2  2  2  2  2  2  2  2  2  2  2  2
++         2  2  2  2  2  2  2  2  2  2  2  2  2  2  0  0  0
++         0  0  0  0  0  0  0  0  0  0  0  0  0  0  0  0  0
++         0  0  0  0  0  0  0  0  0  0  0  0  0  0  0  0  0
++         0  0  0  0  0  0  0  0  0  0  0  0  0  0  0  0  0
%c cc cc ccc ccc cccc cccc cccc cccc ccccc ccccc ccccc ccccc
%c cc cc ccc ccc cccc cccc cccc cccc ccccc ccccc ccccc ccccc
%f  0.0000000  0.000000000  0.00000000000  0.000000000000000
%f  0.0000000  0.000000000  0.00000000000  0.000000000000000
%i    0    0    0    0      0      0      0      0         0
%i    0    0    0    0      0      0      0      0         0
/*      NGA, ST. LOUIS,MO.                                  
/*   EPHEMERIS COMPUTED FROM 2 DAYS OF DATA                 
/*   EPOCHA v5 SMOOTHER                                     
/*   G1762 IERS2010 SATAF SATAPC                            
*  2020  8 24 16 20  0.00000000
P  1  18614.801457  14398.987129 -12868.764734     35.183877                    
V  1 -15581.119943  -3006.387239 -26068.208154      0.012786                    
P  2   2975.318896 -15249.611636  22187.023769   -506.791380                    
V  2  26088.548539   5437.987639    210.322310     -0.053664                    
P  3  12585.842993  21063.142474  10223.224234   -279.401278                    
V  3    987.667775  13209.727522 -28119.538270     -0.109338                    
P  4  11374.911106  10204.428330  21734.026992   -128.195119                    
V  4 -20289.279030  18675.890180   1815.929967     -0.043026                    
P  5   -799.766428 -24951.491661   8632.239883    -19.543787                    
V  5   5972.998493   9973.380569  29071.051543     -0.008467                    
P  6  17251.339616  -8061.350246  18582.192256   -318.996462                    
V  6  22231.491420   7480.349245 -17403.667795     -0.039369                    
P  7  26046.117968   5668.631139  -2700.848572   -357.375900                    
V  7   2868.045644   3627.979848  31008.306955     -0.083849                    
P  8   1402.240958  17700.835760 -19657.650440    -45.587566                    
V  8 -18560.828018  16855.659198  14099.186248     -0.013173                    
P  9  19461.454768  -1448.345265  17969.915858   -275.460286                    
V  9 -14981.063537  17461.390109  17563.789875     -0.059164                    
P 10 -13298.908042   7871.513138 -21485.474166   -436.354260                    
V 10  -7341.525667 -26512.382593  -5389.605264     -0.101500                    
P 11   9700.283716  14285.698222 -20599.440937   -183.678471                    
V 11 -24636.206474   6121.798898  -7885.139249      0.106036                    
P 12 -10351.456546 -22655.507594   9198.825749     76.342794                    
V 12   -103.677188 -12118.116137 -29074.988467     -0.049825                    
P 13   8201.244669 -19742.270327 -15815.908262     38.795160                    
V 13  17006.725490 -10464.489953  22155.160086      0.034891                    
P 15  -4546.866252 -17533.668378 -19641.077006   -208.408476                    
V 15  16879.778426 -17786.193335  12554.661332      0.025798                    
P 16     26.177443  25594.349816   5926.877240   -199.944382                    
V 16  -3821.665016  -7381.701231  31207.821759     -0.049801                    
P 17  21484.265878 -14862.554784  -4236.216319    315.809145                    
V 17  -3071.280261   5481.351090 -31687.310675      0.055741                    
P 18 -25790.451824  -5102.856189  -3946.697746    276.632332                    
V 18  -3991.128923  -3976.840696  31287.494005      0.078202                    
P 19  19756.028785 -17515.984999   2276.052191   -114.139398                    
V 19   3915.890891   -285.362052 -32088.522920      0.050526                    
P 20 -17462.123005  -4527.175588 -19644.319784    526.946842                    
V 20  -8063.213509 -23488.692233  12391.024909     -0.001142                    
P 21  -9953.064251  12650.368210 -20344.801107     39.360828                    
V 21 -26792.614423  -6762.870507   8894.723165      0.043236                    
P 22  10589.689790  24325.215672   2642.443325   -761.227112                    
V 22  -2334.798004   4118.768576 -30762.732915      0.034861                    
P 23 -16018.463576  -2800.161011 -21031.575555     48.931230                    
V 23  -6450.839862 -25849.867302   8357.585455      0.105024                    
P 24 -16796.057214 -14781.229707 -14795.481027    -17.599216                    
V 24  18428.692046   1616.727058 -22476.341985     -0.005476                    
P 25 -15471.482581 -13200.136564  16984.645665     39.622624                    
V 25  -3797.826484 -21642.653158 -19746.975098      0.050031                    
P 26  -7574.130700  18566.981115  17269.175656    266.944990                    
V 26  -8221.287295 -20651.106552  18789.793500      0.065715                    
P 27  -9210.115211  21169.742271 -12971.871401   -379.020348                    
V 27 -13120.077258   9938.442231  26149.997274     -0.092078                    
P 28  12839.565616  -9107.496603 -20839.665914    686.187065                    
V 28   4898.504365  27319.124732  -8536.595344     -0.039698                    
P 29 -17153.924177  -2896.623219  20042.024307   -179.809964                    
V 29  18906.634901 -17075.476811  13641.210376     -0.082192                    
P 30  23400.714682  -2204.068499 -12523.246777   -288.539095                    
V 30  14376.381664   7441.909298  25230.913186     -0.073233                    
P 31 -16168.325426   9081.987139  19132.876230    -64.263900                    
V 31 -22807.604342  -8336.744440 -14828.310384     -0.024209                    
P 32 -20531.632934  16187.721482  -4106.286474    337.152840                    
V 32   1685.301978  -5903.966134 -31198.946679      0.052357                    
EOF
